[{"OBJECT_NAME":"HULIANWANG DIGUI-97","OBJECT_ID":"2025-258B","EPOCH":"2026-03-07T01:41:07.287072","MEAN_MOTION":13.29332603,"ECCENTRICITY":4.34e-5,"INCLINATION":50.0014,"RA_OF_ASC_NODE":302.1428,"ARG_OF_PERICENTER":103.2458,"MEAN_ANOMALY":256.8463,"EPHEMERIS_TYPE":0,"CLASSIFICATION_TYPE":"U","NORAD_CAT_ID":66413,"ELEMENT_SET_NO":999,"REV_AT_EPOCH":1614,"BSTAR":0.00012614,"MEAN_MOTION_DOT":-6.6e-7,"MEAN_MOTION_DDOT":0},{"OBJECT_NAME":"HULIANWANG DIGUI-98","OBJECT_ID":"2025-258C","EPOCH":"2026-03-07T03:17:18.623904","MEAN_MOTION":13.29334164,"ECCENTRICITY":5.05e-5,"INCLINATION":50.0051,"RA_OF_ASC_NODE":301.8721,"ARG_OF_PERICENTER":115.2395,"MEAN_ANOMALY":244.853,"EPHEMERIS_TYPE":0,"CLASSIFICATION_TYPE":"U","NORAD_CAT_ID":66414,"ELEMENT_SET_NO":999,"REV_AT_EPOCH":1615,"BSTAR":0.00011279,"MEAN_MOTION_DOT":-7.2e-7,"MEAN_MOTION_DDOT":0},{"OBJECT_NAME":"HULIANWANG DIGUI-99","OBJECT_ID":"2025-258D","EPOCH":"2026-03-07T02:29:14.357760","MEAN_MOTION":13.29331628,"ECCENTRICITY":3.7e-5,"INCLINATION":50.005,"RA_OF_ASC_NODE":301.6926,"ARG_OF_PERICENTER":95.1665,"MEAN_ANOMALY":264.9249,"EPHEMERIS_TYPE":0,"CLASSIFICATION_TYPE":"U","NORAD_CAT_ID":66415,"ELEMENT_SET_NO":999,"REV_AT_EPOCH":1614,"BSTAR":0.0001277,"MEAN_MOTION_DOT":-6.5e-7,"MEAN_MOTION_DDOT":0},{"OBJECT_NAME":"HULIANWANG DIGUI-100","OBJECT_ID":"2025-258E","EPOCH":"2026-03-07T03:05:17.272896","MEAN_MOTION":13.29334686,"ECCENTRICITY":3.66e-5,"INCLINATION":50.0053,"RA_OF_ASC_NODE":301.8309,"ARG_OF_PERICENTER":96.8879,"MEAN_ANOMALY":263.2034,"EPHEMERIS_TYPE":0,"CLASSIFICATION_TYPE":"U","NORAD_CAT_ID":66416,"ELEMENT_SET_NO":999,"REV_AT_EPOCH":1616,"BSTAR":0.00012395,"MEAN_MOTION_DOT":-6.7e-7,"MEAN_MOTION_DDOT":0},{"OBJECT_NAME":"HULIANWANG DIGUI-101","OBJECT_ID":"2025-258F","EPOCH":"2026-03-07T02:53:16.868832","MEAN_MOTION":13.29332802,"ECCENTRICITY":3.9e-5,"INCLINATION":50.0003,"RA_OF_ASC_NODE":301.7283,"ARG_OF_PERICENTER":91.4211,"MEAN_ANOMALY":268.6705,"EPHEMERIS_TYPE":0,"CLASSIFICATION_TYPE":"U","NORAD_CAT_ID":66417,"ELEMENT_SET_NO":999,"REV_AT_EPOCH":1616,"BSTAR":0.00010683,"MEAN_MOTION_DOT":-7.4e-7,"MEAN_MOTION_DDOT":0},{"OBJECT_NAME":"HULIANWANG DIGUI-102","OBJECT_ID":"2025-258G","EPOCH":"2026-03-07T02:17:08.830176","MEAN_MOTION":13.29334681,"ECCENTRICITY":3.91e-5,"INCLINATION":50.0017,"RA_OF_ASC_NODE":301.609,"ARG_OF_PERICENTER":107.1741,"MEAN_ANOMALY":252.9174,"EPHEMERIS_TYPE":0,"CLASSIFICATION_TYPE":"U","NORAD_CAT_ID":66418,"ELEMENT_SET_NO":999,"REV_AT_EPOCH":1615,"BSTAR":0.0001133,"MEAN_MOTION_DOT":-7.1e-7,"MEAN_MOTION_DDOT":0},{"OBJECT_NAME":"HULIANWANG DIGUI-103","OBJECT_ID":"2025-258H","EPOCH":"2026-03-07T02:05:08.986848","MEAN_MOTION":13.29333748,"ECCENTRICITY":3.27e-5,"INCLINATION":50.001,"RA_OF_ASC_NODE":301.5575,"ARG_OF_PERICENTER":91.1626,"MEAN_ANOMALY":268.9284,"EPHEMERIS_TYPE":0,"CLASSIFICATION_TYPE":"U","NORAD_CAT_ID":66419,"ELEMENT_SET_NO":999,"REV_AT_EPOCH":1615,"BSTAR":0.00012748,"MEAN_MOTION_DOT":-6.5e-7,"MEAN_MOTION_DDOT":0},{"OBJECT_NAME":"HULIANWANG DIGUI-104","OBJECT_ID":"2025-258J","EPOCH":"2026-03-07T01:53:08.600928","MEAN_MOTION":13.29333167,"ECCENTRICITY":4.3e-5,"INCLINATION":50.0027,"RA_OF_ASC_NODE":301.5368,"ARG_OF_PERICENTER":113.1515,"MEAN_ANOMALY":246.9403,"EPHEMERIS_TYPE":0,"CLASSIFICATION_TYPE":"U","NORAD_CAT_ID":66420,"ELEMENT_SET_NO":999,"REV_AT_EPOCH":1614,"BSTAR":0.00012719,"MEAN_MOTION_DOT":-6.5e-7,"MEAN_MOTION_DDOT":0},{"OBJECT_NAME":"HULIANWANG DIGUI-105","OBJECT_ID":"2025-285A","EPOCH":"2026-03-07T03:47:01.495680","MEAN_MOTION":13.29330706,"ECCENTRICITY":9.6e-6,"INCLINATION":50.0045,"RA_OF_ASC_NODE":152.1447,"ARG_OF_PERICENTER":304.7195,"MEAN_ANOMALY":55.3668,"EPHEMERIS_TYPE":0,"CLASSIFICATION_TYPE":"U","NORAD_CAT_ID":66915,"ELEMENT_SET_NO":999,"REV_AT_EPOCH":1248,"BSTAR":9.2907e-5,"MEAN_MOTION_DOT":-8.1e-7,"MEAN_MOTION_DDOT":0},{"OBJECT_NAME":"HULIANWANG DIGUI-106","OBJECT_ID":"2025-285B","EPOCH":"2026-03-04T19:39:18.815328","MEAN_MOTION":13.29477796,"ECCENTRICITY":0.00070993,"INCLINATION":50.0043,"RA_OF_ASC_NODE":160.4766,"ARG_OF_PERICENTER":27.2323,"MEAN_ANOMALY":332.8921,"EPHEMERIS_TYPE":0,"CLASSIFICATION_TYPE":"U","NORAD_CAT_ID":66916,"ELEMENT_SET_NO":999,"REV_AT_EPOCH":1217,"BSTAR":-1.4099124,"MEAN_MOTION_DOT":-0.00628381,"MEAN_MOTION_DDOT":0},{"OBJECT_NAME":"HULIANWANG DIGUI-107","OBJECT_ID":"2025-285C","EPOCH":"2026-03-07T03:22:58.507680","MEAN_MOTION":13.29329998,"ECCENTRICITY":7.2e-6,"INCLINATION":50.0031,"RA_OF_ASC_NODE":152.0397,"ARG_OF_PERICENTER":312.468,"MEAN_ANOMALY":47.6186,"EPHEMERIS_TYPE":0,"CLASSIFICATION_TYPE":"U","NORAD_CAT_ID":66917,"ELEMENT_SET_NO":999,"REV_AT_EPOCH":1248,"BSTAR":-0.00025484,"MEAN_MOTION_DOT":-2.42e-6,"MEAN_MOTION_DDOT":0},{"OBJECT_NAME":"HULIANWANG DIGUI-108","OBJECT_ID":"2025-285D","EPOCH":"2026-03-07T04:59:11.503392","MEAN_MOTION":13.29330598,"ECCENTRICITY":5.7e-6,"INCLINATION":50.0052,"RA_OF_ASC_NODE":151.7439,"ARG_OF_PERICENTER":309.8081,"MEAN_ANOMALY":50.2786,"EPHEMERIS_TYPE":0,"CLASSIFICATION_TYPE":"U","NORAD_CAT_ID":66918,"ELEMENT_SET_NO":999,"REV_AT_EPOCH":1249,"BSTAR":-0.00021205,"MEAN_MOTION_DOT":-2.22e-6,"MEAN_MOTION_DDOT":0},{"OBJECT_NAME":"HULIANWANG DIGUI-109","OBJECT_ID":"2025-285E","EPOCH":"2026-03-07T04:47:09.910464","MEAN_MOTION":13.29330326,"ECCENTRICITY":6.4e-6,"INCLINATION":50.0077,"RA_OF_ASC_NODE":151.7208,"ARG_OF_PERICENTER":308.9418,"MEAN_ANOMALY":51.1449,"EPHEMERIS_TYPE":0,"CLASSIFICATION_TYPE":"U","NORAD_CAT_ID":66919,"ELEMENT_SET_NO":999,"REV_AT_EPOCH":1250,"BSTAR":-0.00022241,"MEAN_MOTION_DOT":-2.27e-6,"MEAN_MOTION_DDOT":0},{"OBJECT_NAME":"HULIANWANG DIGUI-110","OBJECT_ID":"2025-285F","EPOCH":"2026-03-07T04:35:08.731392","MEAN_MOTION":13.29330245,"ECCENTRICITY":6.9e-6,"INCLINATION":50.01,"RA_OF_ASC_NODE":151.7035,"ARG_OF_PERICENTER":304.1715,"MEAN_ANOMALY":55.915,"EPHEMERIS_TYPE":0,"CLASSIFICATION_TYPE":"U","NORAD_CAT_ID":66920,"ELEMENT_SET_NO":999,"REV_AT_EPOCH":1249,"BSTAR":7.7014e-5,"MEAN_MOTION_DOT":-8.8e-7,"MEAN_MOTION_DDOT":0},{"OBJECT_NAME":"HULIANWANG DIGUI-111","OBJECT_ID":"2025-285G","EPOCH":"2026-03-07T04:23:06.872352","MEAN_MOTION":13.29329977,"ECCENTRICITY":7.4e-6,"INCLINATION":50.0126,"RA_OF_ASC_NODE":151.6738,"ARG_OF_PERICENTER":304.2019,"MEAN_ANOMALY":55.8846,"EPHEMERIS_TYPE":0,"CLASSIFICATION_TYPE":"U","NORAD_CAT_ID":66921,"ELEMENT_SET_NO":999,"REV_AT_EPOCH":1249,"BSTAR":-0.00019553,"MEAN_MOTION_DOT":-2.15e-6,"MEAN_MOTION_DDOT":0},{"OBJECT_NAME":"HULIANWANG DIGUI-112","OBJECT_ID":"2025-285H","EPOCH":"2026-03-07T02:22:49.634976","MEAN_MOTION":13.29330462,"ECCENTRICITY":9.9e-6,"INCLINATION":50.0088,"RA_OF_ASC_NODE":151.8717,"ARG_OF_PERICENTER":314.9135,"MEAN_ANOMALY":45.1729,"EPHEMERIS_TYPE":0,"CLASSIFICATION_TYPE":"U","NORAD_CAT_ID":66922,"ELEMENT_SET_NO":999,"REV_AT_EPOCH":1248,"BSTAR":-0.00023958,"MEAN_MOTION_DOT":-2.35e-6,"MEAN_MOTION_DDOT":0}]
