HULIANWANG DIGUI-97     
1 66413U 25258B   26066.07022323 -.00000066  00000+0  12614-3 0  9990
2 66413  50.0014 302.1428 0000434 103.2458 256.8463 13.29332603 16144
HULIANWANG DIGUI-98     
1 66414U 25258C   26066.13702111 -.00000072  00000+0  11279-3 0  9991
2 66414  50.0051 301.8721 0000505 115.2395 244.8530 13.29334164 16157
HULIANWANG DIGUI-99     
1 66415U 25258D   26066.10363840 -.00000065  00000+0  12770-3 0  9990
2 66415  50.0050 301.6926 0000370  95.1665 264.9249 13.29331628 16149
HULIANWANG DIGUI-100    
1 66416U 25258E   26066.12867214 -.00000067  00000+0  12395-3 0  9992
2 66416  50.0053 301.8309 0000366  96.8879 263.2034 13.29334686 16163
HULIANWANG DIGUI-101    
1 66417U 25258F   26066.12033413 -.00000074  00000+0  10683-3 0  9995
2 66417  50.0003 301.7283 0000390  91.4211 268.6705 13.29332802 16169
HULIANWANG DIGUI-102    
1 66418U 25258G   26066.09524109 -.00000071  00000+0  11330-3 0  9996
2 66418  50.0017 301.6090 0000391 107.1741 252.9174 13.29334681 16156
HULIANWANG DIGUI-103    
1 66419U 25258H   26066.08690957 -.00000065  00000+0  12748-3 0  9998
2 66419  50.0010 301.5575 0000327  91.1626 268.9284 13.29333748 16152
HULIANWANG DIGUI-104    
1 66420U 25258J   26066.07857177 -.00000065  00000+0  12719-3 0  9996
2 66420  50.0027 301.5368 0000430 113.1515 246.9403 13.29333167 16142
HULIANWANG DIGUI-105    
1 66915U 25285A   26066.15765620 -.00000081  00000+0  92907-4 0  9991
2 66915  50.0045 152.1447 0000096 304.7195  55.3668 13.29330706 12483
HULIANWANG DIGUI-106    
1 66916U 25285B   26063.81896777 -.00628381  00000+0 -14099+1 0  9992
2 66916  50.0043 160.4766 0007099  27.2323 332.8921 13.29477796 12170
HULIANWANG DIGUI-107    
1 66917U 25285C   26066.14095495 -.00000242  00000+0 -25484-3 0  9993
2 66917  50.0031 152.0397 0000072 312.4680  47.6186 13.29329998 12482
HULIANWANG DIGUI-108    
1 66918U 25285D   26066.20777203 -.00000222  00000+0 -21205-3 0  9990
2 66918  50.0052 151.7439 0000057 309.8081  50.2786 13.29330598 12492
HULIANWANG DIGUI-109    
1 66919U 25285E   26066.19942026 -.00000227  00000+0 -22241-3 0  9992
2 66919  50.0077 151.7208 0000064 308.9418  51.1449 13.29330326 12503
HULIANWANG DIGUI-110    
1 66920U 25285F   26066.19107328 -.00000088  00000+0  77014-4 0  9995
2 66920  50.0100 151.7035 0000069 304.1715  55.9150 13.29330245 12492
HULIANWANG DIGUI-111    
1 66921U 25285G   26066.18271843 -.00000215  00000+0 -19553-3 0  9995
2 66921  50.0126 151.6738 0000074 304.2019  55.8846 13.29329977 12495
HULIANWANG DIGUI-112    
1 66922U 25285H   26066.09918559 -.00000235  00000+0 -23958-3 0  9994
2 66922  50.0088 151.8717 0000099 314.9135  45.1729 13.29330462 12488
